NORAD_CAT_ID,OBJECT_NAME,OBJECT_TYPE,EPOCH,MEAN_MOTION,ECCENTRICITY,INCLINATION,RA_OF_ASC_NODE,ARG_OF_PERICENTER,MEAN_ANOMALY,BSTAR,MEAN_MOTION_DOT,MEAN_MOTION_DDOT,TLE_LINE0,TLE_LINE1,TLE_LINE2,SEMIMAJOR_AXIS,PERIOD,APOGEE,PERIGEE,DECAYED
55282.0,STARLINK-5330,PAYLOAD,2023-12-14 04:13:36,14.98328026,0.0002318,70.0003,303.0303,259.4062,100.6836,3.8838e-06,-4.7e-07,0.0,0 STARLINK-5330,1 55282U 23010P   23348.17612212 -.00000047  00000-0  38838-5 0  9997,2 55282  70.0003 303.0303 0002318 259.4062 100.6836 14.98328026 50178,6950.199,96.107,573.675,570.453,0.0
55282.0,STARLINK-5330,PAYLOAD,2023-12-14 07:25:53,14.9832839,0.0002315,70.0003,302.6936,260.0705,100.0193,4.046e-06,-4.5e-07,0.0,0 STARLINK-5330,1 55282U 23010P   23348.30964206 -.00000045  00000-0  40460-5 0  9997,2 55282  70.0003 302.6936 0002315 260.0705 100.0193 14.98328390 50493,6950.198,96.107,573.672,570.454,0.0
55282.0,STARLINK-5330,PAYLOAD,2023-12-14 21:51:04,14.98368385,0.0002141,69.9998,301.1796,251.1634,108.9293,-0.00049846,-6.041e-05,0.0,0 STARLINK-5330,1 55282U 23010P   23348.91046990 -.00006041  00000-0 -49846-3 0  9993,2 55282  69.9998 301.1796 0002141 251.1634 108.9293 14.98368385 50586,6950.074,96.105,573.427,570.451,0.0
55282.0,STARLINK-5330,PAYLOAD,2023-12-15 04:15:36,14.98339965,0.0002456,69.9999,300.5051,261.9316,98.1564,0.00010862,1.204e-05,0.0,0 STARLINK-5330,1 55282U 23010P   23349.17751029  .00001204  00000-0  10862-3 0  9998,2 55282  69.9999 300.5051 0002456 261.9316  98.1564 14.98339965 50324,6950.162,96.106,573.734,570.32,0.0
55282.0,STARLINK-5330,PAYLOAD,2023-12-15 07:27:52,14.98340784,0.0002453,69.9999,300.1684,263.4542,96.6338,0.00011733,1.308e-05,0.0,0 STARLINK-5330,1 55282U 23010P   23349.31102925  .00001308  00000-0  11733-3 0  9992,2 55282  69.9999 300.1684 0002453 263.4542  96.6338 14.98340784 50645,6950.16,96.106,573.729,570.32,0.0
55282.0,STARLINK-5330,PAYLOAD,2023-12-15 21:53:06,14.98324542,0.0002318,70.0004,298.654,257.0114,103.0786,7.4043e-05,7.91e-06,0.0,0 STARLINK-5330,1 55282U 23010P   23349.91188046  .00000791  00000-0  74043-4 0  9995,2 55282  70.0004 298.6540 0002318 257.0114 103.0786 14.98324542 50735,6950.21,96.107,573.686,570.464,0.0
55282.0,STARLINK-5330,PAYLOAD,2023-12-16 02:41:30,14.98325759,0.0002379,70.0009,298.1508,241.7103,118.3816,6.3327e-05,6.63e-06,0.0,0 STARLINK-5330,1 55282U 23010P   23350.11215979  .00000663  00000-0  63327-4 0  9996,2 55282  70.0009 298.1508 0002379 241.7103 118.3816 14.98325759 50468,6950.206,96.107,573.724,570.418,0.0
55282.0,STARLINK-5330,PAYLOAD,2023-12-16 05:53:46,14.98323527,0.0002345,70.0003,297.8123,257.4631,102.6266,4.8174e-05,4.82e-06,0.0,0 STARLINK-5330,1 55282U 23010P   23350.24568257  .00000482  00000-0  48174-4 0  9992,2 55282  70.0003 297.8123 0002345 257.4631 102.6266 14.98323527 50785,6950.213,96.107,573.708,570.448,0.0
55282.0,STARLINK-5330,PAYLOAD,2023-12-16 21:55:07,14.98333776,0.0002277,70.0006,296.1299,247.9418,112.15,-1.6565e-06,-1.13e-06,0.0,0 STARLINK-5330,1 55282U 23010P   23350.91327716 -.00000113  00000-0 -16565-5 0  9992,2 55282  70.0006 296.1299 0002277 247.9418 112.1500 14.98333776 50880,6950.181,96.107,573.629,570.464,0.0
55282.0,STARLINK-5330,PAYLOAD,2023-12-17 02:43:31,14.98331389,0.0002465,69.9999,295.6239,256.6228,103.4656,-2.287e-05,-3.66e-06,0.0,0 STARLINK-5330,1 55282U 23010P   23351.11355897 -.00000366  00000-0 -22870-4 0  9991,2 55282  69.9999 295.6239 0002465 256.6228 103.4656 14.98331389 50615,6950.189,96.107,573.767,570.34,0.0
55282.0,STARLINK-5330,PAYLOAD,2023-12-17 05:55:47,14.98334434,0.0002549,70.0,295.2875,260.8394,99.2476,1.8673e-05,1.3e-06,0.0,0 STARLINK-5330,1 55282U 23010P   23351.24707614  .00000130  00000-0  18673-4 0  9996,2 55282  70.0000 295.2875 0002549 260.8394  99.2476 14.98334434 50938,6950.179,96.107,573.816,570.273,0.0
55282.0,STARLINK-5330,PAYLOAD,2023-12-17 21:57:07,14.98334747,0.0002496,69.9998,293.6036,258.904,101.1839,0.00018489,2.114e-05,0.0,0 STARLINK-5330,1 55282U 23010P   23351.91467151  .00002114  00000-0  18489-3 0  9997,2 55282  69.9998 293.6036 0002496 258.9040 101.1839 14.98334747 51034,6950.178,96.107,573.778,570.308,0.0
55282.0,STARLINK-5330,PAYLOAD,2023-12-18 02:45:31,14.9833725,0.000239,70.0,293.099,257.2217,102.8675,0.00020125,2.31e-05,0.0,0 STARLINK-5330,1 55282U 23010P   23352.11494921  .00002310  00000-0  20125-3 0  9993,2 55282  70.0000 293.0990 0002390 257.2217 102.8675 14.98337250 50762,6950.17,96.107,573.697,570.374,0.0
55282.0,STARLINK-5330,PAYLOAD,2023-12-18 05:57:47,14.98339751,0.0002154,70.0008,292.7627,251.9106,108.1819,0.00024851,2.874e-05,0.0,0 STARLINK-5330,1 55282U 23010P   23352.24846640  .00002874  00000-0  24851-3 0  9991,2 55282  70.0008 292.7627 0002154 251.9106 108.1819 14.98339751 51082,6950.163,96.106,573.525,570.531,0.0
55282.0,STARLINK-5330,PAYLOAD,2023-12-18 21:59:09,14.98326659,0.0001805,70.0028,291.0839,239.2996,120.7985,7.8646e-05,8.46e-06,0.0,0 STARLINK-5330,1 55282U 23010P   23352.91607842  .00000846  00000-0  78646-4 0  9993,2 55282  70.0028 291.0839 0001805 239.2996 120.7985 14.98326659 51187,6950.203,96.107,573.323,570.814,0.0
55282.0,STARLINK-5330,PAYLOAD,2023-12-19 02:47:33,14.98324221,0.0002266,70.0008,290.5763,252.5322,107.559,3.4026e-05,3.13e-06,0.0,0 STARLINK-5330,1 55282U 23010P   23353.11635996  .00000313  00000-0  34026-4 0  9990,2 55282  70.0008 290.5763 0002266 252.5322 107.5590 14.98324221 50916,6950.211,96.107,573.651,570.501,0.0
55282.0,STARLINK-5330,PAYLOAD,2023-12-19 05:59:49,14.98324252,0.000263,69.9998,290.2377,270.2965,89.7892,4.8195e-05,4.82e-06,0.0,0 STARLINK-5330,1 55282U 23010P   23353.24988062  .00000482  00000-0  48195-4 0  9998,2 55282  69.9998 290.2377 0002630 270.2965  89.7892 14.98324252 51230,6950.211,96.107,573.904,570.248,0.0
55282.0,STARLINK-5330,PAYLOAD,2023-12-19 20:25:01,14.98337806,0.0002092,70.0008,288.7236,256.8132,103.2793,-2.9443e-05,-4.44e-06,0.0,0 STARLINK-5330,1 55282U 23010P   23353.85071388 -.00000444  00000-0 -29443-4 0  9994,2 55282  70.0008 288.7236 0002092 256.8132 103.2793 14.98337806 51027,6950.169,96.106,573.488,570.58,0.0
55282.0,STARLINK-5330,PAYLOAD,2023-12-20 06:01:49,14.98341541,0.0002476,69.9998,287.7133,260.5497,99.5382,-3.202e-06,-1.31e-06,0.0,0 STARLINK-5330,1 55282U 23010P   23354.25126877 -.00000131  00000-0 -32020-5 0  9992,2 55282  69.9998 287.7133 0002476 260.5497  99.5382 14.98341541 51380,6950.157,96.106,573.743,570.301,0.0
55282.0,STARLINK-5330,PAYLOAD,2023-12-20 20:27:02,14.98332272,0.0002365,70.0001,286.1984,258.9581,101.1312,0.00018983,2.173e-05,0.0,0 STARLINK-5330,1 55282U 23010P   23354.85210867  .00002173  00000-0  18983-3 0  9997,2 55282  70.0001 286.1984 0002365 258.9581 101.1312 14.98332272 51178,6950.186,96.107,573.695,570.407,0.0
55282.0,STARLINK-5330,PAYLOAD,2023-12-20 22:03:10,14.98334217,0.0002314,70.0002,286.0293,262.8257,97.2639,0.00021865,2.517e-05,0.0,0 STARLINK-5330,1 55282U 23010P   23354.91886744  .00002517  00000-0  21865-3 0  9992,2 55282  70.0002 286.0293 0002314 262.8257  97.2639 14.98334217 51481,6950.18,96.107,573.653,570.437,0.0
55282.0,STARLINK-5330,PAYLOAD,2023-12-21 04:27:42,14.98340654,0.0002256,70.0003,285.3566,256.993,103.0978,0.00030573,3.558e-05,0.0,0 STARLINK-5330,1 55282U 23010P   23355.18590278  .00003558  00000-0  30573-3 0  9998,2 55282  70.0003 285.3566 0002256 256.9930 103.0978 14.98340654 51220,6950.16,96.106,573.593,570.457,0.0
55282.0,STARLINK-5330,PAYLOAD,2023-12-21 22:05:11,14.98328165,0.000264,70.003,283.5111,208.6553,151.4461,5.9628e-05,6.19e-06,0.0,0 STARLINK-5330,1 55282U 23010P   23355.92027488  .00000619  00000-0  59628-4 0  9996,2 55282  70.0030 283.5111 0002640 208.6553 151.4461 14.98328165 51630,6950.199,96.107,573.898,570.229,0.0
55282.0,STARLINK-5330,PAYLOAD,2023-12-22 02:53:36,14.98327326,0.0002479,69.9993,282.9982,257.513,102.5752,2.5375e-06,-6.3e-07,0.0,0 STARLINK-5330,1 55282U 23010P   23356.12055718 -.00000063  00000-0  25375-5 0  9993,2 55282  69.9993 282.9982 0002479 257.5130 102.5752 14.98327326 51366,6950.201,96.107,573.789,570.343,0.0
55282.0,STARLINK-5330,PAYLOAD,2023-12-22 04:29:44,14.98328701,0.0002376,69.9996,282.8309,249.8479,110.2425,1.4914e-05,8.5e-07,0.0,0 STARLINK-5330,1 55282U 23010P   23356.18731640  .00000085  00000-0  14914-4 0  9993,2 55282  69.9996 282.8309 0002376 249.8479 110.2425 14.98328701 51672,6950.197,96.107,573.713,570.411,0.0
55282.0,STARLINK-5330,PAYLOAD,2023-12-22 22:07:12,14.98331804,0.0002419,69.9996,280.9782,262.8337,97.2547,-4.7399e-05,-6.58e-06,0.0,0 STARLINK-5330,1 55282U 23010P   23356.92167662 -.00000658  00000-0 -47399-4 0  9993,2 55282  69.9996 280.9782 0002419 262.8337  97.2547 14.98331804 51781,6950.187,96.107,573.734,570.371,0.0
55282.0,STARLINK-5330,PAYLOAD,2023-12-23 02:55:36,14.98335073,0.0002201,70.0001,280.4746,255.9841,104.1074,-3.7266e-06,-1.37e-06,0.0,0 STARLINK-5330,1 55282U 23010P   23357.12195321 -.00000137  00000-0 -37266-5 0  9994,2 55282  70.0001 280.4746 0002201 255.9841 104.1074 14.98335073 51514,6950.177,96.107,573.572,570.512,0.0
55282.0,STARLINK-5330,PAYLOAD,2023-12-23 04:31:44,14.98335614,0.0002207,69.9998,280.3042,265.9563,94.1344,4.0762e-05,3.94e-06,0.0,0 STARLINK-5330,1 55282U 23010P   23357.18871253  .00000394  00000-0  40762-4 0  9992,2 55282  69.9998 280.3042 0002207 265.9563  94.1344 14.98335614 51825,6950.176,96.107,573.574,570.507,0.0
55282.0,STARLINK-5330,PAYLOAD,2023-12-23 22:09:13,14.98325274,0.0002395,69.9996,278.453,267.3787,92.7098,0.00016996,1.935e-05,0.0,0 STARLINK-5330,1 55282U 23010P   23357.92307819  .00001935  00000-0  16996-3 0  9999,2 55282  69.9996 278.4530 0002395 267.3787  92.7098 14.98325274 51938,6950.208,96.107,573.737,570.408,0.0
55282.0,STARLINK-5330,PAYLOAD,2023-12-24 02:57:37,14.98331719,0.000236,69.9995,277.948,268.1407,91.9482,0.00021683,2.495e-05,0.0,0 STARLINK-5330,1 55282U 23010P   23358.12335360  .00002495  00000-0  21683-3 0  9995,2 55282  69.9995 277.9480 0002360 268.1407  91.9482 14.98331719 51664,6950.188,96.107,573.693,570.412,0.0
